IRIDIUM 119             
1 42959U 17061E   24309.30364230  .00000219  00000+0  70971-4 0  9992
2 42959  86.3928 271.7169 0002602  91.4787 268.6707 14.34218736370269
IRIDIUM 107             
1 42960U 17061F   24308.90405593  .00002504  00000+0  88699-3 0  9991
2 42960  86.3929 271.9021 0002695  83.9296 276.2207 14.34213440370216
IRIDIUM 132             
1 42961U 17061G   24308.91040001  .00000432  00000+0  14732-3 0  9997
2 42961  86.3925 271.8836 0002510  84.8817 275.2665 14.34214870370216
IRIDIUM 136             
1 42962U 17061H   24309.29095478  .00001070  00000+0  37510-3 0  9996
2 42962  86.3928 271.7277 0002402  90.0192 270.1279 14.34220953370284
IRIDIUM 139             
1 42963U 17061J   24308.94845583  .00000601  00000+0  20758-3 0  9993
2 42963  86.3930 271.9241 0002556  88.5024 271.6464 14.34219161370244
IRIDIUM 125             
1 42964U 17061K   24309.28460672  .00001371  00000+0  48226-3 0  9999
2 42964  86.3936 271.8336 0002627  96.7353 263.4141 14.34222473370308
IRIDIUM 135             
1 43070U 17083A   24308.90989338  .00000131  00000+0  39721-4 0  9999
2 43070  86.4026 208.6768 0001794  77.7020 282.4376 14.34219187359541
IRIDIUM 138             
1 43071U 17083B   24309.28411334  .00001644  00000+0  57979-3 0  9992
2 43071  86.4015 208.2209 0002129  99.5376 260.6061 14.34217804359582
